{
  "norad_id": 59338,
  "name": "STARLINK-31550",
  "history": [
    {
      "epoch": "2026-03-28T10:43:50.143296",
      "apogee_km": 483.774820958939,
      "perigee_km": 482.29829640910975,
      "latitude_deg": -32.908970743162506,
      "longitude_deg": 156.7223814399913,
      "semi_major_axis_km": 6861.173558684024,
      "eccentricity": 0.0001076,
      "inclination_deg": 43.0031,
      "raan_deg": 81.4933,
      "arg_perigee_deg": 242.5416,
      "mean_anomaly_deg": 117.5326,
      "mean_motion_rev_day": 15.27584187
    },
    {
      "epoch": "2026-03-29T05:33:43.064352",
      "apogee_km": 483.7106322030786,
      "perigee_km": 482.3836791873673,
      "latitude_deg": -32.57150013264242,
      "longitude_deg": -127.9521507199388,
      "semi_major_axis_km": 6861.184155695222,
      "eccentricity": 9.67e-05,
      "inclination_deg": 43.0039,
      "raan_deg": 77.0609,
      "arg_perigee_deg": 231.8436,
      "mean_anomaly_deg": 128.2328,
      "mean_motion_rev_day": 15.27580648
    }
  ]
}